CCSDS_OEM_VERS = 2.0
CREATION_DATE  = 2024-09-13T18:45:02.787
ORIGINATOR     = NASA/JSC/FOD/TOPO

META_START
OBJECT_NAME          = ISS
OBJECT_ID            = 1998-067-A
CENTER_NAME          = Earth
REF_FRAME            = EME2000
TIME_SYSTEM          = UTC
START_TIME           = 2024-09-13T12:00:00.000
USEABLE_START_TIME   = 2024-09-13T12:00:00.000
USEABLE_STOP_TIME    = 2024-09-28T12:00:00.000
STOP_TIME            = 2024-09-28T12:00:00.000
META_STOP

COMMENT Source: This file was produced by the TOPO office within FOD at JSC.
COMMENT Units are in kg and m^2
COMMENT MASS=474622.70
COMMENT DRAG_AREA=1569.69
COMMENT DRAG_COEFF=3.80
COMMENT SOLAR_RAD_AREA=0.00
COMMENT SOLAR_RAD_COEFF=0.00
COMMENT Orbits start at the ascending node epoch
COMMENT ISS first asc. node: EPOCH = 2024-09-13T13:00:49.883 $ ORBIT = 3225 $ LAN(DEG) = 49.48693
COMMENT ISS last asc. node : EPOCH = 2024-09-28T10:33:05.307 $ ORBIT = 3456 $ LAN(DEG) = -2.02146
COMMENT Begin sequence of events
COMMENT TRAJECTORY EVENT SUMMARY:
COMMENT 
COMMENT |       EVENT        |       TIG        | ORB |   DV    |   HA    |   HP    |
COMMENT |                    |       GMT        |     |   M/S   |   KM    |   KM    |
COMMENT |                    |                  |     |  (F/S)  |  (NM)   |  (NM)   |
COMMENT =============================================================================
COMMENT  71S_Undock            267:08:37:30.000             0.0     426.1     408.3
COMMENT                                                    (0.0)   (230.1)   (220.5)
COMMENT 
COMMENT  Crew9_Launch          268:18:50:41.000             0.0     425.8     407.9
COMMENT                                                    (0.0)   (229.9)   (220.2)
COMMENT 
COMMENT  Crew9_Dock            269:22:47:30.000             0.0     425.6     407.4
COMMENT                                                    (0.0)   (229.8)   (220.0)
COMMENT 
COMMENT =============================================================================
COMMENT End sequence of events
2024-09-26T18:39:30.000 -1972.474238512060 -3877.939816904170 5205.679032878330 7.28577111012864 -2.04501864509913 1.23863803025255
2024-09-26T18:43:30.000 -173.312461305618 -4221.496064171100 5309.137544310590 7.61550958223461 -0.80053914551488 -0.38164216979714
2024-09-26T18:47:30.000 1638.479602931840 -4257.560958043280 5024.775915857330 7.39046161023236 0.50177593496518 -1.97343831680565
2024-09-26T18:51:30.000 3330.955472699160 -3983.590106109550 4373.463415499800 6.62729934211760 1.76734360364349 -3.42087250423735
2024-09-26T18:55:30.000 4780.888828516990 -3419.561066068610 3402.797511527910 5.38164237048455 2.90415580122764 -4.61841522332531
2024-09-26T18:59:30.000 5882.735274095960 -2606.564090219280 2183.676144105290 3.74436069225974 3.82937209380722 -5.47862903363585
2024-09-26T19:03:30.000 6556.383609158650 -1603.841955815140 805.148609294815 1.83527526565858 4.47553678466113 -5.93867392576824
2024-09-26T19:07:30.000 6753.087983805960 -484.445530810838 -632.131345526739 -0.20574042098651 4.79577290782476 -5.96534421236124
2024-09-26T19:11:30.000 6459.016453770560 670.165969142842 -2023.372290121280 -2.22947120745069 4.76733372834140 -5.55753511828465
2024-09-26T19:15:30.000 5696.138611565480 1776.149349236460 -3267.376945850000 -4.08868091895958 4.39317348717392 -4.74607034785922
2024-09-26T19:19:30.000 4520.412232896600 2753.416430278140 -4273.934416373190 -5.64911816160149 3.70136260920376 -3.59102607278378
2024-09-26T19:23:30.000 3017.480679730280 3531.395662213290 -4970.284873330040 -6.79907658833229 2.74257942566620 -2.17677167366854
2024-09-26T19:27:30.000 1296.331261615270 4054.003015364430 -5306.196602036730 -7.45676188562374 1.58610672510074 -0.60552086431671
2024-09-26T19:31:30.000 -518.534037280232 4283.520045244230 -5257.396797309540 -7.57532904645665 0.31482054665608 1.00985018113447
2024-09-26T19:35:30.000 -2295.871904349890 4203.200586023230 -4827.229271301750 -7.14575272281826 -0.98034945344515 2.55336355361479
2024-09-26T19:39:30.000 -3906.907704908760 3818.492171607810 -4046.476553849530 -6.19758293025781 -2.20641005511262 3.91360674376237
2024-09-26T19:43:30.000 -5234.475974241050 3156.785469916420 -2971.348322557290 -4.79758969202349 -3.27455162768104 4.99137763303104
2024-09-26T19:47:30.000 -6181.541034783090 2265.646995471720 -1679.653655183090 -3.04587821230629 -4.10650469634186 5.70703661719841
2024-09-26T19:51:30.000 -6678.462612799580 1209.551990669380 -265.324494838703 -1.06932944554473 -4.64057402624570 6.00679919935592
2024-09-26T19:55:30.000 -6688.384276236440 65.275423688522 1168.388888257800 0.98743002548311 -4.83669007922452 5.86740772967197
2024-09-26T19:59:30.000 -6210.197108799150 -1083.755227524390 2516.581435103830 2.97310802203406 -4.67989331178734 5.29847571257449
2024-09-26T20:03:30.000 -5278.706024606130 -2153.682470896770 3680.558685114790 4.74166676614062 -4.18155994848600 4.34177992252483
2024-09-26T20:07:30.000 -3962.009720854830 -3066.456777044290 4575.198703064960 6.16345423085291 -3.37839313754608 3.06789727395748
2024-09-26T20:11:30.000 -2356.359937516440 -3755.603737272210 5135.229919570860 7.13496745669971 -2.32947377020770 1.57055453168018
2024-09-26T20:15:30.000 -578.958462011674 -4171.043585493130 5319.934567671190 7.58608527034882 -1.11144754769448 -0.04065755111868
2024-09-26T20:19:30.000 1240.636006905570 -4282.642386113340 5116.000936868780 7.48448690867187 0.18708351540730 -1.64829649058991
2024-09-26T20:23:30.000 2969.885142399610 -4082.356350532590 4538.429821261050 6.83784343998563 1.47174006920781 -3.13526248627558
2024-09-26T20:27:30.000 4482.873647174090 -3584.806689195930 3629.441693092460 5.69333340143784 2.64915329616810 -4.39319014856809
2024-09-26T20:31:30.000 5669.451369033190 -2826.239844524620 2455.431981325370 4.13442273932256 3.63357107239996 -5.33023015109885
2024-09-26T20:35:30.000 6443.304310937550 -1861.927569510550 1102.157525542200 2.27510601793600 4.35320603443831 -5.87790934928389
2024-09-26T20:39:30.000 6748.336263943700 -762.133363941258 -331.551154887132 0.25161164545108 4.75572429432806 -5.99649151364204
2024-09-26T20:43:30.000 6562.791391885740 393.074430608012 -1741.111672636950 -1.78795750359742 4.81228852295826 -5.67807584716271
2024-09-26T20:47:30.000 5900.743868011270 1519.758993148260 -3023.931305951820 -3.69503798873349 4.51963662933147 -4.94697044180294
2024-09-26T20:51:30.000 4810.863760267500 2536.273917748290 -4086.917803337630 -5.33167543077032 3.89994499484421 -3.85747430405161
2024-09-26T20:55:30.000 3372.643404147700 3369.162963719590 -4853.178932326400 -6.58047390749259 2.99879220563084 -2.48937284465586
2024-09-26T20:59:30.000 1690.470576809050 3958.360200917300 -5267.423030594620 -7.35248925032677 1.88146554896326 -0.94175945549754
2024-09-26T21:03:30.000 -113.917291179774 4261.364484150450 -5299.754160125060 -7.59283135678633 0.62817927531428 0.67406542066015
2024-09-26T21:07:30.000 -1910.047938785880 4256.169929855730 -4947.698728177190 -7.28395942424765 -0.67143850539901 2.24214794197843
2024-09-26T21:11:30.000 -3567.861201452780 3942.829854798020 -4236.410172014930 -6.44689250138038 -1.92419950260618 3.64950060199959
2024-09-26T21:15:30.000 -4966.901149100040 3343.568790549500 -3217.032785667960 -5.14029814774495 -3.03957510078637 4.79377369239395
2024-09-26T21:19:30.000 -6005.016674151260 2501.389409747690 -1963.261185111070 -3.45731903259921 -3.93601918109286 5.59059793544492
2024-09-26T21:23:30.000 -6605.982390249040 1477.150662670520 -566.193184070308 -1.51960742272552 -4.54726311763344 5.98033048028081
2024-09-26T21:27:30.000 -6725.342921313480 345.242300817848 872.251430681295 0.53135351747931 -4.82758942493888 5.93308271960877
2024-09-26T21:31:30.000 -6353.941618475100 -811.846359838066 2246.853364236320 2.54479391233825 -4.75572880259692 5.45151884490839
2024-09-26T21:35:30.000 -5518.736471176880 -1909.668324253680 3456.977337157970 4.37252772707059 -4.33674892344272 4.57091515549441
2024-09-26T21:39:30.000 -4280.774988570400 -2868.126819234420 4414.102065640710 5.88049514839581 -3.60155583600696 3.35624587695018
2024-09-26T21:43:30.000 -2730.562937426590 -3617.390927565790 5048.352890456270 6.95873283686835 -2.60420337218908 1.89689425398937
2024-09-26T21:47:30.000 -981.306104229112 -4102.979532798140 5313.571305810710 7.52918803408490 -1.41773365556939 0.29985776078249
2024-09-26T21:51:30.000 839.452348973100 -4289.663809995820 5190.586598342990 7.55103009842162 -0.12851826109561 -1.31836011048958
2024-09-26T21:55:30.000 2599.089294217550 -4163.936032255610 4688.504745057570 7.02297366749675 1.16982234738225 -2.83997819420931
2024-09-26T21:59:30.000 4169.466106987220 -3734.987014692960 3844.035637133920 5.98350896047628 2.38288923646829 -4.15411046487385
2024-09-26T22:03:30.000 5436.240446141650 -3034.070765195020 2718.864531074940 4.50845098110264 3.42235175775478 -5.16481711350537
2024-09-26T22:07:30.000 6307.234707391710 -2112.259272854140 1395.180509382580 2.70560564767799 4.21241529769462 -5.79824268937809
2024-09-26T22:11:30.000 6719.232921349470 -1036.726064000370 -30.336602795400 0.70701842512272 4.69555760255616 -6.00828233228368
2024-09-26T22:15:30.000 6642.646930248840 114.200872900879 -1453.662665498750 -1.34093385978237 4.83695985259409 -5.78025108266084
2024-09-26T22:19:30.000 6083.609557222150 1256.846310285160 -2771.142028358750 -3.28885879267257 4.62712269963770 -5.13181978154170
2024-09-26T22:23:30.000 5083.338519392930 2308.352105739480 -3887.101472821540 -4.99561347183026 4.08225214415020 -4.11134895178072
2024-09-26T22:27:30.000 3714.889836511830 3192.689326383000 -4720.763126330540 -6.33857966750418 3.24260507743396 -2.79374761030481
2024-09-26T22:31:30.000 2077.675139585090 3846.056417103070 -5211.943925800360 -7.22196687751637 2.16916858542928 -1.27464690376110
